CSS (TIANHE)            
1 48274U 21035A   24011.31481918  .00042155  00000+0  45923-3 0  9991
2 48274  41.4702 327.5628 0004663  82.8025 277.3344 15.62612660154388
